{"fetched_at":"2026-07-21T17:53:44.633Z","source":"https://celestrak.org/NORAD/elements/gp.php?NAME=RADARSAT&FORMAT=JSON","constellation":"radarsat-2","records":[{"OBJECT_NAME":"RADARSAT-2","OBJECT_ID":"2007-061A","EPOCH":"2026-07-21T07:45:53.201088","CLASSIFICATION_TYPE":"U","MEAN_MOTION":14.29984265,"ECCENTRICITY":0.00013383,"INCLINATION":98.5792,"RA_OF_ASC_NODE":208.7692,"ARG_OF_PERICENTER":86.3263,"MEAN_ANOMALY":273.8073,"EPHEMERIS_TYPE":0,"NORAD_CAT_ID":32382,"ELEMENT_SET_NO":999,"REV_AT_EPOCH":97083,"BSTAR":0.000030671347,"MEAN_MOTION_DOT":3.5e-7,"MEAN_MOTION_DDOT":0}]}
